IRIDIUM 136             
1 42962U 17061H   24002.58854855  .00000301  00000+0  10038-3 0  9992
2 42962  86.3961  39.9388 0002369  93.9944 266.1523 14.34215959326320
